OBJECT_NAME,OBJECT_ID,EPOCH,MEAN_MOTION,ECCENTRICITY,INCLINATION,RA_OF_ASC_NODE,ARG_OF_PERICENTER,MEAN_ANOMALY,EPHEMERIS_TYPE,CLASSIFICATION_TYPE,NORAD_CAT_ID,ELEMENT_SET_NO,REV_AT_EPOCH,BSTAR,MEAN_MOTION_DOT,MEAN_MOTION_DDOT
CUTE-1 (CO-55),2003-031E,2026-07-11T20:01:49.244736,14.24350218,.0010755,98.6741,201.0838,111.2957,248.9371,0,U,27844,999,19518,.88088E-4,.16E-5,0
CUBESAT XI-IV (CO-57),2003-031J,2026-07-11T13:18:12.441024,14.23633286,.0010408,98.6772,200.4999,128.9651,231.2457,0,U,27848,999,19484,.7624E-4,.13E-5,0
CUBESAT XI-V,2005-043F,2026-07-11T09:17:30.194592,14.72696464,.00151315,98.3011,348.5214,126.3821,233.8784,0,U,28895,999,10531,.13420163E-3,.804E-5,0
CUTE-1.7+APD II (CO-65),2008-021C,2026-07-11T21:46:04.126944,15.09681006,.000731,97.8285,174.8451,312.8836,47.1778,0,U,32785,999,98892,.20472E-3,.3231E-4,0
CANX-2,2008-021H,2026-07-11T21:02:30.165792,15.05793751,.0009076,97.8654,173.1388,330.3855,29.6856,0,U,32790,999,98852,.15617E-3,.2199E-4,0
SWISSCUBE,2009-051B,2026-07-11T17:31:23.634624,14.62526839,.0007681,98.4013,101.0441,128.3881,231.8011,0,U,35932,999,89274,.1085E-3,.501E-5,0
TISAT 1,2010-035E,2026-07-11T19:17:08.168064,15.32645486,.000424,98.0706,141.5552,126.9872,233.1757,0,U,36799,999,87147,.38373E-3,.12017E-3,0
STRAND-1,2013-009E,2026-07-11T11:50:07.442880,14.37177517,.00092096,98.3931,12.1305,151.3099,208.8597,0,U,39090,999,70055,.66856744E-4,.156E-5,0
BRITE-AUSTRIA,2013-009F,2026-07-11T17:24:44.407872,14.36551598,.0010565,98.4006,11.5552,160.5615,199.5976,0,U,39091,999,70057,.45385E-4,.91E-6,0
NEE-01 PEGASO,2013-018B,2026-07-09T15:21:07.078464,14.93776228,.00138751,98.1250,335.5366,90.6498,269.6310,0,U,39151,999,71405,.1219934E-3,.1233E-4,0
POPACS 2,2013-055E,2026-07-11T19:08:26.774304,14.91924118,.0415216,80.9917,116.0137,114.7784,249.7226,0,U,39269,999,66688,.22224E-3,.13615E-3,-.90579E-6
POPACS 3,2013-055F,2026-07-11T08:54:19.000800,14.56594609,.0549258,80.9987,202.9550,356.3426,3.3817,0,U,39270,999,64207,.20734E-3,.8749E-4,0
WNISAT-1,2013-066H,2026-07-11T15:24:05.882400,14.58114987,.0163664,97.7230,340.0659,154.4487,206.4918,0,U,39423,999,67029,.13427E-3,.695E-5,0
CUBEBUG-2 (LO-74),2013-066AA,2026-07-11T20:18:42.659712,14.93953448,.0056005,97.8908,141.9334,306.7356,52.8728,0,U,39440,999,68067,.17145E-3,.1819E-4,0
NEE-02 KRYSAOR,2013-066AB,2026-07-11T18:36:46.089216,14.86730516,.0065707,97.8892,131.8170,350.5702,9.4275,0,U,39441,999,67985,.17018E-3,.1515E-4,0
UWE-3,2013-066AG,2026-07-11T19:28:32.557152,14.97185641,.0047517,97.8698,149.0559,236.3304,123.3381,0,U,39446,999,68126,.15713E-3,.1794E-4,0
DUCHIFAT-1,2014-033M,2026-07-11T09:52:16.917024,15.70259500,.00020545,98.0442,255.0791,250.9446,109.1592,0,U,40021,999,65954,.80962005E-3,.99078E-3,0
NANOSATC-BR1,2014-033Q,2026-07-11T15:15:34.348608,15.32251608,.0005324,98.0715,227.2031,105.3164,254.8665,0,U,40024,999,65772,.33686E-3,.10408E-3,0
QB50P1,2014-033R,2026-07-11T14:21:34.410816,15.18630813,.0010172,98.0966,205.4618,135.5063,224.6988,0,U,40025,999,65673,.23978E-3,.4893E-4,0
QB50P2,2014-033Y,2026-07-11T12:47:08.602944,15.15477038,.00093661,98.0759,190.9346,94.0976,266.1326,0,U,40032,999,65635,.23404727E-3,.4358E-4,0
PERSEUS-M1,2014-033AF,2026-07-11T18:56:52.474272,14.95707086,.0010725,97.9650,137.3273,208.5536,151.5098,0,U,40039,999,65431,.11856E-3,.126E-4,0
